[{"tag":["Square"],"_id":"5e8598128e43af3bf4145998","name":"Box","desc":"This is just a box","weight":"2lbs","dimen":"2 x 3 x 4","seller":"5e803a01c8c8fad56cdddfb7","zip":"95124","__v":0},{"tag":[""],"_id":"5e85a12ae4db9820e03be998","name":"Mystery Box","desc":"","weight":"","dimen":"","seller":"5e803a01c8c8fad56cdddfb7","zip":"","__v":0},{"tag":[""],"_id":"5e900e585c4fe23d472ca85c","name":"Mystery Box4","desc":"","weight":"","dimen":"","seller":"5e803a01c8c8fad56cdddfb7","zip":"","__v":0},{"tag":[""],"_id":"5e9144c6512461d209f1e7ad","name":"Mystery Box5","desc":"","weight":"","dimen":"","seller":"5e803a01c8c8fad56cdddfb7","zip":"","__v":0},{"tag":[],"_id":"5e928a6f5d02f824722451d3","name":"IOS TITLE4","desc":"IOS ITEM BODY","weight":"3lbs","dimen":"2 x 4 x 4","seller":"2424","zip":"95123","__v":0},{"tag":[],"_id":"5e9291144c0dcc7cc6e26974","name":"IOS TITLE5","desc":"IOS ITEM BODY","weight":"","dimen":"2 x 4 x 4","seller":"2424","zip":"95123","__v":0},{"tag":[],"_id":"5e92918a4c0dcc7cc6e26975","name":"IOS TITLE2","desc":"IOS ITEM BODY","weight":"3lbs","dimen":"2 x 4 x 4","seller":"2424","zip":"95123","__v":0},{"tag":[],"_id":"5e9293484c0dcc7cc6e26976","name":"New Item from Front End","desc":"Cool","weight":"24lbs","dimen":"2 x 4 x 4","seller":"2424","zip":"95550","__v":0},{"tag":[],"_id":"5e9293b64c0dcc7cc6e26978","name":"another one","desc":"really cool","weight":"24lbs","dimen":"2 x 4 x 4","seller":"2424","zip":"95678","__v":0},{"tag":[],"_id":"5e92acf236fd284ebeb51949","name":"cool","desc":"sda","weight":"12lbs","dimen":"2 x 4 x 4","seller":"2424","zip":"23454","__v":0},{"tag":[],"_id":"5e92cc80354517a324cab000","name":"new item","desc":"show me","weight":"24lbs","dimen":"2 x 4 x 4","seller":"2424","zip":"94582","__v":0},{"tag":[],"_id":"5e92ccc3354517a324cab001","name":"new Item","desc":"weâ€™re","weight":"24lbs","dimen":"2 x 4 x 4","seller":"2424","zip":"94567","__v":0},{"tag":[],"_id":"5e9505ee0949894e40def2b2","name":"item","desc":"sda","weight":"24lbs","dimen":"2 x 4 x 4","seller":"2424","zip":"94582","__v":0}]
